ASTRA 1D                
1 23331U 94070A   17324.18521428 -.00000264  00000-0  00000+0 0  9992
2 23331   7.7949  48.1664 0004337 194.7607 170.5273  1.00263623 84774
ASTRA 1F                
1 23842U 96021A   17324.22164108  .00000142  00000-0  00000+0 0  9994
2 23842   0.0356 353.1613 0003848 245.8361 304.5288  1.00271773 78934
AMC-1 (GE-1)            
1 24315U 96054A   17324.42577508  .00000061  00000-0  00000+0 0  9990
2 24315   1.8934  84.2322 0002851 172.3845 187.1590  1.00272214 77632
AMC-2 (GE-2)            
1 24713U 97002A   17324.27830861 -.00000209  00000-0  00000+0 0  9998
2 24713   4.6236  65.1200 0004757 179.2915 190.4381  1.00271533 26939
AMC-3 (GE-3)            
1 24936U 97050A   17324.57198734 -.00000256  00000-0  00000+0 0  9999
2 24936   0.7090  91.6184 0002466 147.4379 314.6575  1.00272816 74058
NSS-5                   
1 24957U 97053A   17324.84073779  .00000112  00000-0  00000+0 0  9996
2 24957   4.1386  68.5016 0003054 170.7345 173.9764  1.00270864 73843
ASTRA 1G                
1 25071U 97076A   17323.94907130  .00000109  00000-0  00000-0 0  9993
2 25071   2.6392  77.7800 0002893 163.6989 210.4383  1.00272502 73169
NSS-806                 
1 25239U 98014A   17324.47893303 -.00000276  00000-0  00000+0 0  9992
2 25239   0.0682 325.1468 0004249 276.6563 302.8131  1.00270593 72264
ASTRA 2A                
1 25462U 98050A   17324.55535368 -.00000356  00000-0  00000-0 0  9993
2 25462   0.0671 255.1181 0002150 347.8540 130.2415  1.00269006 14978
ASTRA 1H                
1 25785U 99033A   17324.10882677 -.00000007  00000-0  00000+0 0  9994
2 25785   4.1222  68.6573 0001708  87.6146 307.5845  1.00035200 67391
AMC-4 (GE-4)            
1 25954U 99060A   17324.20960881  .00000090  00000-0  00000+0 0  9998
2 25954   0.0580  99.8406 0002701 153.0993 107.0582  1.00271481 66094
ASTRA 2B                
1 26494U 00054A   17324.32181597 -.00000150  00000-0  00000-0 0  9994
2 26494   2.5299  78.4342 0005205 176.0838 261.3073  1.00272732 15492
AMC-7 (GE-7)            
1 26495U 00054B   17324.20963618  .00000090  00000-0  00000+0 0  9995
2 26495   0.0340  63.4799 0002586 182.0664 114.4268  1.00268619 62862
NSS-11 (AAP-1)          
1 26554U 00059A   17324.55535368 -.00000342  00000-0  00000-0 0  9993
2 26554   0.0097 317.1143 0001560 274.2087 136.5299  1.00268924  9918
AMC-6 (GE-6)            
1 26580U 00067A   17324.49351507 -.00000212  00000-0  00000-0 0  9991
2 26580   0.0155  11.6886 0002834 245.4814 257.1967  1.00269782 62582
ASTRA 2D                
1 26638U 00081A   17323.86182876  .00000050  00000-0  00000-0 0  9991
2 26638   3.9488  69.3087 0001597 170.0313 189.6980  1.00270349 21515
AMC-8 (GE-8)            
1 26639U 00081B   17324.64143123  .00000107  00000-0  00000+0 0  9993
2 26639   0.0189 357.6894 0002704 260.6801 253.4314  1.00273793 61881
ASTRA 2C                
1 26853U 01025A   17324.82756890  .00000050  00000-0  00000+0 0  9998
2 26853   0.7297  91.1418 0003255 146.6154 180.5022  1.00273293 60198
ASTRA 3A                
1 27400U 02015B   17324.15382649 -.00000278  00000-0  00000+0 0  9993
2 27400   4.1091  68.0255 0002465 183.1366 176.5936  1.00275003 57323
NSS-7                   
1 27414U 02019A   17324.11789851 -.00000153  00000-0  00000-0 0  9997
2 27414   2.2163  82.1895 0002484 159.3282 200.2774  1.00272078 57174
NSS-6                   
1 27603U 02057A   17324.83521543 -.00000266  00000-0  00000+0 0  9994
2 27603   0.0345  89.8985 0002716 158.1351 207.7092  1.00271124 54700
AMC-9 (GE-12)           
1 27820U 03024A   17324.79520005 -.00000274  00000-0  00000+0 0  9996
2 27820   0.3442  87.2626 0013708 242.0312 155.4309  0.99033015 52945
AMC-10 (GE-10)          
1 28154U 04003A   17324.53640741  .00000091  00000-0  00000+0 0  9993
2 28154   0.0121 343.5400 0000752 189.6559 304.6473  1.00271260 50542
AMC-11 (GE-11)          
1 28252U 04017A   17324.71087601  .00000072  00000-0  00000+0 0  9996
2 28252   0.0190 338.9996 0002285 261.0855 304.7486  1.00271419 49316
AMC-15                  
1 28446U 04041A   17324.67484229 -.00000086  00000-0  00000+0 0  9996
2 28446   0.0565  88.5909 0002685 159.1890 310.0131  1.00272328 47998
AMC-16                  
1 28472U 04048A   17324.57688215 -.00000203  00000-0  00000+0 0  9993
2 28472   0.0184 322.8471 0002618 278.5198 301.1100  1.00270815 47429
NSS-10 (AMC-12)         
1 28526U 05003A   17324.22545906 -.00000248  00000-0  00000+0 0  9995
2 28526   0.0199 313.5467 0002478 283.8005 225.8218  1.00272660 46923
ASTRA 1KR               
1 29055U 06012A   17324.85115587  .00000123  00000-0  00000+0 0  9992
2 29055   0.0446 278.0870 0005125 318.8335 148.7569  1.00270369 42355
AMC-18                  
1 29644U 06054B   17324.52756803 -.00000086  00000-0  00000-0 0  9998
2 29644   0.0668  99.6662 0003067 161.7345 243.3277  1.00272061 40201
ASTRA 1L                
1 31306U 07016A   17324.85115587  .00000123  00000-0  00000+0 0  9999
2 31306   0.0600 307.1540 0004363 320.8692 117.6559  1.00270798 38657
ASTRA 4A (SIRIUS 4)     
1 32299U 07057A   17324.80671050  .00000036  00000-0  00000+0 0  9996
2 32299   0.0347  57.1197 0002627 184.4030 113.7357  1.00273973 36567
AMC-21                  
1 33275U 08038B   17324.62005858  .00000039  00000-0  00000-0 0  9992
2 33275   0.0606  87.5961 0002420 168.4422 262.1270  1.00272116 34103
ASTRA 1M                
1 33436U 08057A   17324.23171095  .00000123  00000-0  00000-0 0  9990
2 33436   0.0483 111.1014 0003304  75.9504 335.0415  1.00273960 14357
CIEL-2                  
1 33453U 08063A   17324.71087601  .00000061  00000-0  00000+0 0  9998
2 33453   0.0121 303.6742 0003002 303.3080 300.0122  1.00271790 32764
NSS-9                   
1 33749U 09008A   17324.55551010  .00000075  00000-0  00000+0 0  9993
2 33749   0.0194 341.0058 0001874 246.9786 214.8479  1.00272207 32174
SES-7 (PROTOSTAR 2)     
1 34941U 09027A   17324.55535368 -.00000342  00000-0  00000-0 0  9996
2 34941   0.0571  93.7079 0002402 167.9338 106.3120  1.00271026 31248
NSS-12                  
1 36032U 09058A   17324.67528025  .00000074  00000-0  00000+0 0  9998
2 36032   0.0266  47.4682 0002275 191.4464 121.0910  1.00273677 29554
SES-1                   
1 36516U 10016A   17324.53409751 -.00000111  00000-0  00000-0 0  9994
2 36516   0.0163   2.7639 0001785 236.0541 272.2148  1.00272273 27663
ASTRA 3B                
1 36581U 10021A   17324.85115587  .00000141  00000-0  00000+0 0  9999
2 36581   0.0442 317.5556 0002925 287.5078 144.9292  1.00273068 27267
SES-3                   
1 37748U 11035A   17324.52996265 -.00000099  00000-0  00000-0 0  9999
2 37748   0.0581  94.3689 0001721 133.7759 279.3964  1.00272479 23221
ASTRA 1N                
1 37775U 11041A   17324.12599772  .00000123  00000-0  00000+0 0  9990
2 37775   0.0547  31.6877 0000433 282.8043 169.4624  1.00274998 23003
SES-2                   
1 37809U 11049A   17324.49837771 -.00000193  00000-0  00000-0 0  9999
2 37809   0.0387  71.2444 0001859 175.3514 265.5556  1.00271500 22631
QUETZSAT 1              
1 37826U 11054A   17324.49351507 -.00000239  00000-0  00000-0 0  9993
2 37826   0.0199 359.7173 0002025 224.7100 295.9528  1.00271477 18522
SES-4                   
1 38087U 12007A   17324.24632611 -.00000166  00000-0  00000+0 0  9991
2 38087   0.0345 317.9715 0002361 278.9411 249.1746  1.00269154 21090
SES-5                   
1 38652U 12036A   17324.80671050  .00000038  00000-0  00000+0 0  9990
2 38652   0.0494 272.7725 0001638 339.6690 102.9823  1.00273337 19673
ASTRA 2F                
1 38778U 12051A   17323.75777078  .00000152  00000-0  00000-0 0  9994
2 38778   0.0520 225.6915 0004157   3.0866 131.2136  1.00274075  9778
SES-6                   
1 39172U 13026A   17323.94815342 -.00000259  00000-0  00000+0 0  9992
2 39172   0.0249 329.4939 0001652 260.1683 130.3511  1.00273100 16339
O3B FM5                 
1 39188U 13031A   17324.41804656 -.00000025  00000-0  00000-0 0  9996
2 39188   0.0565   2.3820 0008377 226.8150 130.7359  5.00116064 80505
O3B FM4                 
1 39189U 13031B   17324.11028358 -.00000025  00000-0  00000+0 0  9990
2 39189   0.0284   3.2214 0001793  52.6918 304.1094  5.00115929 80471
O3B FM2                 
1 39190U 13031C   17320.48727283 -.00000027  00000-0  00000-0 0  9994
2 39190   0.0258 353.3885 0002486  62.5682 304.0718  5.00115793 80296
O3B PFM                 
1 39191U 13031D   17323.10911399 -.00000026  00000-0  00000-0 0  9999
2 39191   0.0482   3.7820 0002457 191.8271 164.3887  5.00116042 80426
ASTRA 2E                
1 39285U 13056A   17323.93313164  .00000152  00000-0  00000+0 0  9995
2 39285   0.0567 358.3123 0002090 251.6818 173.5983  1.00270028 15196
SES-8                   
1 39460U 13071A   17324.57010884 -.00000267  00000-0  00000+0 0  9999
2 39460   0.0130 293.6772 0000909 255.1957 171.1536  1.00271566 14485
ASTRA 5B                
1 39617U 14011B   17324.35948736  .00000157  00000-0  00000+0 0  9997
2 39617   0.0599 305.6133 0003448 282.1202 352.7804  1.00270927 13470
O3B FM3                 
1 40079U 14038A   17324.22036500 -.00000025  00000-0  00000-0 0  9999
2 40079   0.0374   0.6419 0004922 230.8679 128.4516  5.00115757 56579
O3B FM7                 
1 40080U 14038B   17323.57542275 -.00000026  00000-0  00000-0 0  9990
2 40080   0.0356   2.8632 0003232 235.3613 121.7495  5.00115475 61321
O3B FM6                 
1 40081U 14038C   17322.59902345 -.00000026  00000-0  00000+0 0  9999
2 40081   0.0367   1.9311 0003691 231.9606 126.0794  5.00114782 61411
O3B FM8                 
1 40082U 14038D   17324.24259337 -.00000025  00000-0  00000-0 0  9990
2 40082   0.0336   3.4788 0002695 210.4629 146.0467  5.00116053 61448
O3B FM10                
1 40348U 14083A   17323.46512252 -.00000026  00000-0  00000-0 0  9997
2 40348   0.0437   0.8910 0002925 260.0557  99.0257  5.00115933 53384
O3B FM11                
1 40349U 14083B   17323.48699548 -.00000026  00000-0  00000-0 0  9994
2 40349   0.0456   2.6285 0002403 253.3332 104.0171  5.00115770 53389
O3B FM12                
1 40350U 14083C   17324.35358154 -.00000025  00000-0  00000+0 0  9996
2 40350   0.0445   2.9225 0002408 239.4435 117.6152  5.00115621 53429
O3B FM9                 
1 40351U 14083D   17323.33161800 -.00000026  00000-0  00000-0 0  9996
2 40351   0.0463   1.3918 0002789 250.8605 107.7228  5.00115564 53385
ASTRA 2G                
1 40364U 14089A   17323.75791188  .00000151  00000-0  00000-0 0  9998
2 40364   0.0373  27.7335 0000991  24.4820 307.8211  1.00271770 10567
SES-9                   
1 41380U 16013A   17323.53597028 -.00000344  00000-0  00000-0 0  9994
2 41380   0.0170 309.2002 0000614 249.1872 161.6379  1.00271682  6103
SES-10                  
1 42432U 17017A   17324.02124902 -.00000270  00000-0  00000-0 0  9998
2 42432   0.0143 333.0480 0002475 272.8957 114.0582  1.00273000  2381
SES-15                  
1 42709U 17026A   17324.21551687  .00000099  00000-0  00000+0 0  9997
2 42709   0.0215 234.5940 0000481 153.3885 332.0481  1.00270738  2792
